{"type": "FeatureCollection", "features": [ {"type": "Feature", "properties": {"norad_id": 66613, "name": "STARLINK-36037", "group": "last-30-days", "lat": 23.659299637228678, "lon": -110.19522938740171, "alt_km": 374.9277124040591, "timestamp": "2025-12-07T18:50:15.515108+00:00", "meta": {"OBJECT_NAME": "STARLINK-36037", "OBJECT_ID": "2025-270AB", "EPOCH": "2025-12-07T06:00:04.999968", "MEAN_MOTION": 15.65715444, "ECCENTRICITY": 0.00015746, "INCLINATION": 42.999, "RA_OF_ASC_NODE": 224.9537, "ARG_OF_PERICENTER": 259.0196, "MEAN_ANOMALY": 0.9989, "EPHEMERIS_TYPE": 0, "CLASSIFICATION_TYPE": "U", "NORAD_CAT_ID": 66613, "ELEMENT_SET_NO": 999, "REV_AT_EPOCH": 351, "BSTAR": -0.021719919, "MEAN_MOTION_DOT": -0.01988444, "MEAN_MOTION_DDOT": 0}, "tle": {"line1": "1 66613U 25270AB  25341.25005787 -.01988444  00000+0 -21720-1 0  9999", "line2": "2 66613  42.9990 224.9537 0001574 259.0196   0.9989 15.65715444  3514"}}, "geometry": {"type": "Point", "coordinates": [-110.19522938740171, 23.659299637228678]}}, {"type": "Feature", "properties": {"norad_id": 66614, "name": "STARLINK-36040", "group": "last-30-days", "lat": 25.93041518195536, "lon": -106.79755060644231, "alt_km": 374.5775474540733, "timestamp": "2025-12-07T18:50:15.515118+00:00", "meta": {"OBJECT_NAME": "STARLINK-36040", "OBJECT_ID": "2025-270AC", "EPOCH": "2025-12-07T06:00:04.999968", "MEAN_MOTION": 15.6571905, "ECCENTRICITY": 0.00015811, "INCLINATION": 42.9989, "RA_OF_ASC_NODE": 224.9436, "ARG_OF_PERICENTER": 261.8889, "MEAN_ANOMALY": 1.9628, "EPHEMERIS_TYPE": 0, "CLASSIFICATION_TYPE": "U", "NORAD_CAT_ID": 66614, "ELEMENT_SET_NO": 999, "REV_AT_EPOCH": 336, "BSTAR": -0.021780036, "MEAN_MOTION_DOT": -0.01993542, "MEAN_MOTION_DDOT": 0}, "tle": {"line1": "1 66614U 25270AC  25341.25005787 -.01993542  00000+0 -21780-1 0  9991", "line2": "2 66614  42.9989 224.9436 0001581 261.8889   1.9628 15.65719050  3360"}}, "geometry": {"type": "Point", "coordinates": [-106.79755060644231, 25.93041518195536]}}, {"type": "Feature", "properties": {"norad_id": 66615, "name": "STARLINK-35988", "group": "last-30-days", "lat": 24.804117052631813, "lon": -108.51197260731817, "alt_km": 374.7481284889036, "timestamp": "2025-12-07T18:50:15.515127+00:00", "meta": {"OBJECT_NAME": "STARLINK-35988", "OBJECT_ID": "2025-270AD", "EPOCH": "2025-12-07T06:00:04.999968", "MEAN_MOTION": 15.65717278, "ECCENTRICITY": 0.00015997, "INCLINATION": 42.9989, "RA_OF_ASC_NODE": 224.9492, "ARG_OF_PERICENTER": 261.2999, "MEAN_ANOMALY": 0.6356, "EPHEMERIS_TYPE": 0, "CLASSIFICATION_TYPE": "U", "NORAD_CAT_ID": 66615, "ELEMENT_SET_NO": 999, "REV_AT_EPOCH": 336, "BSTAR": -0.021764633, "MEAN_MOTION_DOT": -0.01992192, "MEAN_MOTION_DDOT": 0}, "tle": {"line1": "1 66615U 25270AD  25341.25005787 -.01992192  00000+0 -21765-1 0  9995", "line2": "2 66615  42.9989 224.9492 0001599 261.2999   0.6356 15.65717278  3362"}}, "geometry": {"type": "Point", "coordinates": [-108.51197260731817, 24.804117052631813]}}, {"type": "Feature", "properties": {"norad_id": 66616, "name": "STARLINK-35391", "group": "last-30-days", "lat": 27.035182460731523, "lon": -105.05019315030248, "alt_km": 374.456289223549, "timestamp": "2025-12-07T18:50:15.515140+00:00", "meta": {"OBJECT_NAME": "STARLINK-35391", "OBJECT_ID": "2025-270AE", "EPOCH": "2025-12-07T06:00:04.999968", "MEAN_MOTION": 15.65719894, "ECCENTRICITY": 0.00015534, "INCLINATION": 42.9989, "RA_OF_ASC_NODE": 224.9394, "ARG_OF_PERICENTER": 259.767, "MEAN_ANOMALY": 6, "EPHEMERIS_TYPE": 0, "CLASSIFICATION_TYPE": "U", "NORAD_CAT_ID": 66616, "ELEMENT_SET_NO": 999, "REV_AT_EPOCH": 362, "BSTAR": -0.021774319, "MEAN_MOTION_DOT": -0.01993121, "MEAN_MOTION_DDOT": 0}, "tle": {"line1": "1 66616U 25270AE  25341.25005787 -.01993121  00000+0 -21774-1 0  9999", "line2": "2 66616  42.9989 224.9394 0001553 259.7670   6.0000 15.65719894  3623"}}, "geometry": {"type": "Point", "coordinates": [-105.05019315030248, 27.035182460731523]}}, {"type": "Feature", "properties": {"norad_id": 66617, "name": "STARLINK-35940", "group": "last-30-days", "lat": -35.11008415631966, "lon": 179.5174802150706, "alt_km": 359.74344862089765, "timestamp": "2025-12-07T18:50:15.515150+00:00", "meta": {"OBJECT_NAME": "STARLINK-35940", "OBJECT_ID": "2025-271A", "EPOCH": "2025-12-07T06:00:04.999968", "MEAN_MOTION": 15.73612899, "ECCENTRICITY": 0.00013199, "INCLINATION": 53.1583, "RA_OF_ASC_NODE": 213.9786, "ARG_OF_PERICENTER": 76.9813, "MEAN_ANOMALY": 87.7215, "EPHEMERIS_TYPE": 0, "CLASSIFICATION_TYPE": "U", "NORAD_CAT_ID": 66617, "ELEMENT_SET_NO": 999, "REV_AT_EPOCH": 336, "BSTAR": -0.015654776, "MEAN_MOTION_DOT": -0.01978871, "MEAN_MOTION_DDOT": 0}, "tle": {"line1": "1 66617U 25271A   25341.25005787 -.01978871  00000+0 -15655-1 0  9997", "line2": "2 66617  53.1583 213.9786 0001319  76.9813  87.7215 15.73612899  3360"}}, "geometry": {"type": "Point", "coordinates": [179.5174802150706, -35.11008415631966]}}, {"type": "Feature", "properties": {"norad_id": 66618, "name": "STARLINK-35970", "group": "last-30-days", "lat": 5.868388815448444, "lon": -144.3625538580456, "alt_km": 355.0383299174937, "timestamp": "2025-12-07T18:50:15.515166+00:00", "meta": {"OBJECT_NAME": "STARLINK-35970", "OBJECT_ID": "2025-271B", "EPOCH": "2025-12-07T06:00:04.999968", "MEAN_MOTION": 15.73611952, "ECCENTRICITY": 8.671e-05, "INCLINATION": 53.1582, "RA_OF_ASC_NODE": 213.8657, "ARG_OF_PERICENTER": 76.9989, "MEAN_ANOMALY": 141.0202, "EPHEMERIS_TYPE": 0, "CLASSIFICATION_TYPE": "U", "NORAD_CAT_ID": 66618, "ELEMENT_SET_NO": 999, "REV_AT_EPOCH": 336, "BSTAR": -0.015580394, "MEAN_MOTION_DOT": -0.01970129, "MEAN_MOTION_DDOT": 0}, "tle": {"line1": "1 66618U 25271B   25341.25005787 -.01970129  00000+0 -15580-1 0  9993", "line2": "2 66618  53.1582 213.8657 0000867  76.9989 141.0202 15.73611952  3366"}}, "geometry": {"type": "Point", "coordinates": [-144.3625538580456, 5.868388815448444]}}, {"type": "Feature", "properties": {"norad_id": 66619, "name": "STARLINK-35951", "group": "last-30-days", "lat": -29.726161023313434, "lon": -174.03484738269293, "alt_km": 359.2028375701975, "timestamp": "2025-12-07T18:50:15.515179+00:00", "meta": {"OBJECT_NAME": "STARLINK-35951", "OBJECT_ID": "2025-271C", "EPOCH": "2025-12-07T06:00:04.999968", "MEAN_MOTION": 15.73606165, "ECCENTRICITY": 8.549e-05, "INCLINATION": 53.158, "RA_OF_ASC_NODE": 213.9618, "ARG_OF_PERICENTER": 96.8351, "MEAN_ANOMALY": 75.5322, "EPHEMERIS_TYPE": 0, "CLASSIFICATION_TYPE": "U", "NORAD_CAT_ID": 66619, "ELEMENT_SET_NO": 999, "REV_AT_EPOCH": 336, "BSTAR": -0.015548547, "MEAN_MOTION_DOT": -0.01926192, "MEAN_MOTION_DDOT": 0}, "tle": {"line1": "1 66619U 25271C   25341.25005787 -.01926192  00000+0 -15549-1 0  9990", "line2": "2 66619  53.1580 213.9618 0000854  96.8351  75.5322 15.73606165  3367"}}, "geometry": {"type": "Point", "coordinates": [-174.03484738269293, -29.726161023313434]}}, {"type": "Feature", "properties": {"norad_id": 66620, "name": "STARLINK-35936", "group": "last-30-days", "lat": -33.79727014578729, "lon": -178.79813368891115, "alt_km": 359.4632122532403, "timestamp": "2025-12-07T18:50:15.515189+00:00", "meta": {"OBJECT_NAME": "STARLINK-35936", "OBJECT_ID": "2025-271D", "EPOCH": "2025-12-07T06:00:04.999968", "MEAN_MOTION": 15.73601921, "ECCENTRICITY": 0.00011924, "INCLINATION": 53.1583, "RA_OF_ASC_NODE": 213.9744, "ARG_OF_PERICENTER": 63.5245, "MEAN_ANOMALY": 103.1025, "EPHEMERIS_TYPE": 0, "CLASSIFICATION_TYPE": "U", "NORAD_CAT_ID": 66620, "ELEMENT_SET_NO": 999, "REV_AT_EPOCH": 336, "BSTAR": -0.015565568, "MEAN_MOTION_DOT": -0.01928001, "MEAN_MOTION_DDOT": 0}, "tle": {"line1": "1 66620U 25271D   25341.25005787 -.01928001  00000+0 -15566-1 0  9992", "line2": "2 66620  53.1583 213.9744 0001192  63.5245 103.1025 15.73601921  3364"}}, "geometry": {"type": "Point", "coordinates": [-178.79813368891115, -33.79727014578729]}}, {"type": "Feature", "properties": {"norad_id": 66621, "name": "STARLINK-35847", "group": "last-30-days", "lat": 8.685859184126866, "lon": -142.21237269215425, "alt_km": 354.5647439718123, "timestamp": "2025-12-07T18:50:15.515199+00:00", "meta": {"OBJECT_NAME": "STARLINK-35847", "OBJECT_ID": "2025-271E", "EPOCH": "2025-12-07T06:00:04.999968", "MEAN_MOTION": 15.73611221, "ECCENTRICITY": 9.712e-05, "INCLINATION": 53.158, "RA_OF_ASC_NODE": 213.8584, "ARG_OF_PERICENTER": 75.092, "MEAN_ANOMALY": 146.4679, "EPHEMERIS_TYPE": 0, "CLASSIFICATION_TYPE": "U", "NORAD_CAT_ID": 66621, "ELEMENT_SET_NO": 999, "REV_AT_EPOCH": 336, "BSTAR": -0.015593939, "MEAN_MOTION_DOT": -0.01971668, "MEAN_MOTION_DDOT": 0}, "tle": {"line1": "1 66621U 25271E   25341.25005787 -.01971668  00000+0 -15594-1 0  9991", "line2": "2 66621  53.1580 213.8584 0000971  75.0920 146.4679 15.73611221  3364"}}, "geometry": {"type": "Point", "coordinates": [-142.21237269215425, 8.685859184126866]}}, {"type": "Feature", "properties": {"norad_id": 66622, "name": "STARLINK-35950", "group": "last-30-days", "lat": -28.336513310182454, "lon": -172.53931036087204, "alt_km": 359.120693792187, "timestamp": "2025-12-07T18:50:15.515209+00:00", "meta": {"OBJECT_NAME": "STARLINK-35950", "OBJECT_ID": "2025-271F", "EPOCH": "2025-12-07T06:00:04.999968", "MEAN_MOTION": 15.73602712, "ECCENTRICITY": 0.00012886, "INCLINATION": 53.1582, "RA_OF_ASC_NODE": 213.958, "ARG_OF_PERICENTER": 72.1092, "MEAN_ANOMALY": 102.1806, "EPHEMERIS_TYPE": 0, "CLASSIFICATION_TYPE": "U", "NORAD_CAT_ID": 66622, "ELEMENT_SET_NO": 999, "REV_AT_EPOCH": 336, "BSTAR": -0.015533852, "MEAN_MOTION_DOT": -0.01924758, "MEAN_MOTION_DDOT": 0}, "tle": {"line1": "1 66622U 25271F   25341.25005787 -.01924758  00000+0 -15534-1 0  9994", "line2": "2 66622  53.1582 213.9580 0001288  72.1092 102.1806 15.73602712  3360"}}, "geometry": {"type": "Point", "coordinates": [-172.53931036087204, -28.336513310182454]}}]}